{
  "type": "FeatureCollection",
  "features": [
    {
      "type": "Feature",
      "properties": {
        "norad_id": 41581,
        "name": "INTELSAT 31 (IS-31)",
        "group": "intelsat",
        "lat": -0.02380450828644011,
        "lon": -153.36263769781831,
        "alt_km": 35779.127508400095,
        "timestamp": "2025-12-09T14:52:25.833912+00:00",
        "meta_object_name": "INTELSAT 31 (IS-31)",
        "meta_object_id": "2016-035A",
        "meta_epoch": "2025-12-09T07:03:12.501216",
        "meta_mean_motion": 1.00269203,
        "meta_eccentricity": 0.00018757,
        "meta_inclination": 0.0179,
        "meta_ra_of_asc_node": 271.4568,
        "meta_arg_of_pericenter": 308.3614,
        "meta_mean_anomaly": 229.2038,
        "meta_ephemeris_type": 0,
        "meta_classification_type": "U",
        "meta_norad_cat_id": 41581,
        "meta_element_set_no": 999,
        "meta_rev_at_epoch": 3478,
        "meta_bstar": 0,
        "meta_mean_motion_dot": -1.48e-06,
        "meta_mean_motion_ddot": 0,
        "tle_line1": "1 41581U 16035A   25343.29389469 -.00000148  00000+0  00000+0 0  9993",
        "tle_line2": "2 41581   0.0179 271.4568 0001875 308.3614 229.2038  1.00269203 34788"
      },
      "geometry": {
        "type": "Point",
        "coordinates": [
          -153.36263769781831,
          -0.02380450828644011
        ]
      }
    },
    {
      "type": "Feature",
      "properties": {
        "norad_id": 41747,
        "name": "INTELSAT 36 (IS-36)",
        "group": "intelsat",
        "lat": 0.01021719342392759,
        "lon": 10.217826306892631,
        "alt_km": 35783.12409768347,
        "timestamp": "2025-12-09T14:52:25.833924+00:00",
        "meta_object_name": "INTELSAT 36 (IS-36)",
        "meta_object_id": "2016-053A",
        "meta_epoch": "2025-12-09T03:37:36.247008",
        "meta_mean_motion": 1.00269853,
        "meta_eccentricity": 0.00014223,
        "meta_inclination": 0.0118,
        "meta_ra_of_asc_node": 357.5426,
        "meta_arg_of_pericenter": 318.485,
        "meta_mean_anomaly": 245.015,
        "meta_ephemeris_type": 0,
        "meta_classification_type": "U",
        "meta_norad_cat_id": 41747,
        "meta_element_set_no": 999,
        "meta_rev_at_epoch": 3404,
        "meta_bstar": 0,
        "meta_mean_motion_dot": -2.2e-07,
        "meta_mean_motion_ddot": 0,
        "tle_line1": "1 41747U 16053A   25343.15111397 -.00000022  00000+0  00000+0 0  9996",
        "tle_line2": "2 41747   0.0118 357.5426 0001422 318.4850 245.0150  1.00269853 34047"
      },
      "geometry": {
        "type": "Point",
        "coordinates": [
          10.217826306892631,
          0.01021719342392759
        ]
      }
    },
    {
      "type": "Feature",
      "properties": {
        "norad_id": 41945,
        "name": "INTELSAT 32E (IS-32E)",
        "group": "intelsat",
        "lat": -0.02044421773552111,
        "lon": -101.46901746051394,
        "alt_km": 35787.02686887008,
        "timestamp": "2025-12-09T14:52:25.833936+00:00",
        "meta_object_name": "INTELSAT 32E (IS-32E)",
        "meta_object_id": "2017-007B",
        "meta_epoch": "2025-12-09T04:48:29.456352",
        "meta_mean_motion": 1.00269317,
        "meta_eccentricity": 4.379e-05,
        "meta_inclination": 0.0262,
        "meta_ra_of_asc_node": 67.3991,
        "meta_arg_of_pericenter": 287.4874,
        "meta_mean_anomaly": 112.2582,
        "meta_ephemeris_type": 0,
        "meta_classification_type": "U",
        "meta_norad_cat_id": 41945,
        "meta_element_set_no": 999,
        "meta_rev_at_epoch": 3232,
        "meta_bstar": 0,
        "meta_mean_motion_dot": -2.67e-06,
        "meta_mean_motion_ddot": 0,
        "tle_line1": "1 41945U 17007B   25343.20034093 -.00000267  00000+0  00000+0 0  9990",
        "tle_line2": "2 41945   0.0262  67.3991 0000437 287.4874 112.2582  1.00269317 32324"
      },
      "geometry": {
        "type": "Point",
        "coordinates": [
          -101.46901746051394,
          -0.02044421773552111
        ]
      }
    },
    {
      "type": "Feature",
      "properties": {
        "norad_id": 42818,
        "name": "INTELSAT 35E (IS-35E)",
        "group": "intelsat",
        "lat": -0.03608545894390382,
        "lon": -92.78913874986162,
        "alt_km": 35776.99243048845,
        "timestamp": "2025-12-09T14:52:25.833947+00:00",
        "meta_object_name": "INTELSAT 35E (IS-35E)",
        "meta_object_id": "2017-041A",
        "meta_epoch": "2025-12-09T04:50:51.728640",
        "meta_mean_motion": 1.0026939,
        "meta_eccentricity": 0.00023175,
        "meta_inclination": 0.0189,
        "meta_ra_of_asc_node": 332.4178,
        "meta_arg_of_pericenter": 292.6301,
        "meta_mean_anomaly": 211.3651,
        "meta_ephemeris_type": 0,
        "meta_classification_type": "U",
        "meta_norad_cat_id": 42818,
        "meta_element_set_no": 999,
        "meta_rev_at_epoch": 3091,
        "meta_bstar": 0,
        "meta_mean_motion_dot": -2.36e-06,
        "meta_mean_motion_ddot": 0,
        "tle_line1": "1 42818U 17041A   25343.20198760 -.00000236  00000+0  00000+0 0  9996",
        "tle_line2": "2 42818   0.0189 332.4178 0002317 292.6301 211.3651  1.00269390 30919"
      },
      "geometry": {
        "type": "Point",
        "coordinates": [
          -92.78913874986162,
          -0.03608545894390382
        ]
      }
    },
    {
      "type": "Feature",
      "properties": {
        "norad_id": 42950,
        "name": "INTELSAT 37E (IS-37E)",
        "group": "intelsat",
        "lat": -0.03431280387052102,
        "lon": -76.26944877802126,
        "alt_km": 35773.96887015673,
        "timestamp": "2025-12-09T14:52:25.833958+00:00",
        "meta_object_name": "INTELSAT 37E (IS-37E)",
        "meta_object_id": "2017-059A",
        "meta_epoch": "2025-12-09T04:55:36.274944",
        "meta_mean_motion": 1.00270728,
        "meta_eccentricity": 0.00033893,
        "meta_inclination": 0.0168,
        "meta_ra_of_asc_node": 5.8291,
        "meta_arg_of_pericenter": 247.8454,
        "meta_mean_anomaly": 240.4264,
        "meta_ephemeris_type": 0,
        "meta_classification_type": "U",
        "meta_norad_cat_id": 42950,
        "meta_element_set_no": 999,
        "meta_rev_at_epoch": 3016,
        "meta_bstar": 0,
        "meta_mean_motion_dot": -1.39e-06,
        "meta_mean_motion_ddot": 0,
        "tle_line1": "1 42950U 17059A   25343.20528096 -.00000139  00000+0  00000+0 0  9993",
        "tle_line2": "2 42950   0.0168   5.8291 0003389 247.8454 240.4264  1.00270728 30168"
      },
      "geometry": {
        "type": "Point",
        "coordinates": [
          -76.26944877802126,
          -0.03431280387052102
        ]
      }
    },
    {
      "type": "Feature",
      "properties": {
        "norad_id": 43632,
        "name": "AZERSPACE 2 (IS-38)",
        "group": "intelsat",
        "lat": 0.004207536830684687,
        "lon": -13.162288460767446,
        "alt_km": 35786.10459146845,
        "timestamp": "2025-12-09T14:52:25.833970+00:00",
        "meta_object_name": "AZERSPACE 2 (IS-38)",
        "meta_object_id": "2018-074A",
        "meta_epoch": "2025-12-09T05:13:27.067296",
        "meta_mean_motion": 1.00270316,
        "meta_eccentricity": 0.00015572,
        "meta_inclination": 0.0166,
        "meta_ra_of_asc_node": 339.3776,
        "meta_arg_of_pericenter": 280.4096,
        "meta_mean_anomaly": 301.8968,
        "meta_ephemeris_type": 0,
        "meta_classification_type": "U",
        "meta_norad_cat_id": 43632,
        "meta_element_set_no": 999,
        "meta_rev_at_epoch": 2654,
        "meta_bstar": 0,
        "meta_mean_motion_dot": 1.39e-06,
        "meta_mean_motion_ddot": 0,
        "tle_line1": "1 43632U 18074A   25343.21767439  .00000139  00000+0  00000+0 0  9995",
        "tle_line2": "2 43632   0.0166 339.3776 0001557 280.4096 301.8968  1.00270316 26540"
      },
      "geometry": {
        "type": "Point",
        "coordinates": [
          -13.162288460767446,
          0.004207536830684687
        ]
      }
    },
    {
      "type": "Feature",
      "properties": {
        "norad_id": 43633,
        "name": "HORIZONS-3E",
        "group": "intelsat",
        "lat": -0.017907113133447356,
        "lon": 110.71955598177105,
        "alt_km": 35791.89936153684,
        "timestamp": "2025-12-09T14:52:25.833982+00:00",
        "meta_object_name": "HORIZONS-3E",
        "meta_object_id": "2018-074B",
        "meta_epoch": "2025-12-09T04:31:38.517600",
        "meta_mean_motion": 1.00269202,
        "meta_eccentricity": 0.00012296,
        "meta_inclination": 0.0428,
        "meta_ra_of_asc_node": 177.4318,
        "meta_arg_of_pericenter": 102.348,
        "meta_mean_anomaly": 35.3276,
        "meta_ephemeris_type": 0,
        "meta_classification_type": "U",
        "meta_norad_cat_id": 43633,
        "meta_element_set_no": 999,
        "meta_rev_at_epoch": 2643,
        "meta_bstar": 0,
        "meta_mean_motion_dot": -2.9e-07,
        "meta_mean_motion_ddot": 0,
        "tle_line1": "1 43633U 18074B   25343.18864025 -.00000029  00000+0  00000+0 0  9990",
        "tle_line2": "2 43633   0.0428 177.4318 0001229 102.3480  35.3276  1.00269202 26431"
      },
      "geometry": {
        "type": "Point",
        "coordinates": [
          110.71955598177105,
          -0.017907113133447356
        ]
      }
    }
  ]
}